{
    "links": {
        "self": "http://www.neowsapp.com/rest/v1/neo/3506990?api_key=iIulBulltgU6a56xZRHN4H3l9WmuAYTsLGpBGhQ2"
    },
    "id": "3506990",
    "neo_reference_id": "3506990",
    "name": "(2010 CN)",
    "designation": "2010 CN",
    "nasa_jpl_url": "http://ssd.jpl.nasa.gov/sbdb.cgi?sstr=3506990",
    "absolute_magnitude_h": 23.4,
    "estimated_diameter": {
        "kilometers": {
            "estimated_diameter_min": 0.0555334912,
            "estimated_diameter_max": 0.1241766613
        },
        "meters": {
            "estimated_diameter_min": 55.5334911581,
            "estimated_diameter_max": 124.1766612574
        },
        "miles": {
            "estimated_diameter_min": 0.0345069009,
            "estimated_diameter_max": 0.0771597762
        },
        "feet": {
            "estimated_diameter_min": 182.1964991311,
            "estimated_diameter_max": 407.4037573197
        }
    },
    "is_potentially_hazardous_asteroid": false,
    "close_approach_data": [
        {
            "close_approach_date": "1992-02-20",
            "close_approach_date_full": "1992-Feb-20 20:28",
            "epoch_date_close_approach": 698617680000,
            "relative_velocity": {
                "kilometers_per_second": "9.2779925387",
                "kilometers_per_hour": "33400.7731392739",
                "miles_per_hour": "20753.9415097894"
            },
            "miss_distance": {
                "astronomical": "0.2390412422",
                "lunar": "92.9870432158",
                "kilometers": "35760060.675274114",
                "miles": "22220271.3359422132"
            },
            "orbiting_body": "Earth"
        },
        {
            "close_approach_date": "2010-02-19",
            "close_approach_date_full": "2010-Feb-19 11:25",
            "epoch_date_close_approach": 1266578700000,
            "relative_velocity": {
                "kilometers_per_second": "6.1251726648",
                "kilometers_per_hour": "22050.6215931317",
                "miles_per_hour": "13701.398733799"
            },
            "miss_distance": {
                "astronomical": "0.1101847825",
                "lunar": "42.8618803925",
                "kilometers": "16483408.768413275",
                "miles": "10242315.266222195"
            },
            "orbiting_body": "Earth"
        }
    ],
    "orbital_data": {
        "orbit_id": "12",
        "orbit_determination_date": "2017-04-06 08:58:30",
        "first_observation_date": "2010-02-06",
        "last_observation_date": "2010-03-04",
        "data_arc_in_days": 26,
        "observations_used": 79,
        "orbit_uncertainty": "7",
        "minimum_orbit_intersection": ".110552",
        "jupiter_tisserand_invariant": "4.733",
        "epoch_osculation": "2459000.5",
        "eccentricity": ".2238788248311459",
        "semi_major_axis": "1.390415920274081",
        "inclination": "10.66662817216075",
        "ascending_node_longitude": "317.8817966778258",
        "orbital_period": "598.8465123386856",
        "perihelion_distance": "1.079131238016604",
        "perihelion_argument": "212.4354045237282",
        "aphelion_distance": "1.701700602531559",
        "perihelion_time": "2458860.526596788302",
        "mean_anomaly": "84.14581051732365",
        "mean_motion": ".6011557094890406",
        "equinox": "J2000",
        "orbit_class": {
            "orbit_class_type": "AMO",
            "orbit_class_description": "Near-Earth asteroid orbits similar to that of 1221 Amor",
            "orbit_class_range": "1.017 AU < q (perihelion) < 1.3 AU"
        }
    },
    "is_sentry_object": false
}